     3.03           N: GNSS NAV DATA    M: MIXED            RINEX VERSION / TYPE
GR30 V4.20          ASI-egeos           20210630 235942 UTC PGM / RUN BY / DATE
GAL    3.4500D+01  3.5156D-01  1.9867D-02                   IONOSPHERIC CORR
GPSA   7.4506D-09  2.2352D-08 -5.9605D-08 -1.1921D-07       IONOSPHERIC CORR
GPSB   9.2160D+04  1.3107D+05 -6.5536D+04 -5.2429D+05       IONOSPHERIC CORR
BDSA   9.3132D-09  4.4703D-08 -4.1723D-07  6.5565D-07 M 02  IONOSPHERIC CORR
BDSA   7.4506D-09  6.7055D-08 -4.7684D-07  7.1526D-07 W 05  IONOSPHERIC CORR
BDSA   7.4506D-09  6.7055D-08 -4.7684D-07  7.1526D-07 Q 06  IONOSPHERIC CORR
BDSA   7.4506D-09  6.7055D-08 -4.7684D-07  7.1526D-07 W 07  IONOSPHERIC CORR
BDSA   7.4506D-09  5.9605D-08 -4.7684D-07  6.5565D-07 I 08  IONOSPHERIC CORR
BDSA   7.4506D-09  6.7055D-08 -4.7684D-07  7.1526D-07 U 09  IONOSPHERIC CORR
BDSA   7.4506D-09  6.7055D-08 -4.7684D-07  7.1526D-07 W 10  IONOSPHERIC CORR
BDSA   7.4506D-09  6.7055D-08 -4.7684D-07  7.1526D-07 Q 11  IONOSPHERIC CORR
BDSA   7.4506D-09  6.7055D-08 -4.7684D-07  7.1526D-07 O 12  IONOSPHERIC CORR
BDSA   7.4506D-09  6.7055D-08 -4.7684D-07  7.1526D-07 K 13  IONOSPHERIC CORR
BDSA   7.4506D-09  6.7055D-08 -4.7684D-07  7.1526D-07 U 14  IONOSPHERIC CORR
BDSA   7.4506D-09  6.7055D-08 -4.7684D-07  7.1526D-07 Q 16  IONOSPHERIC CORR
BDSA   7.4506D-09  6.7055D-08 -4.7684D-07  7.1526D-07 M 19  IONOSPHERIC CORR
BDSA   7.4506D-09  6.7055D-08 -4.7684D-07  7.1526D-07 W 20  IONOSPHERIC CORR
BDSA   7.4506D-09  6.7055D-08 -4.7684D-07  7.1526D-07 Q 21  IONOSPHERIC CORR
BDSA   7.4506D-09  6.7055D-08 -4.7684D-07  7.1526D-07 O 22  IONOSPHERIC CORR
BDSA   7.4506D-09  6.7055D-08 -4.7684D-07  7.1526D-07 W 23  IONOSPHERIC CORR
BDSA   7.4506D-09  6.7055D-08 -4.7684D-07  7.1526D-07 W 24  IONOSPHERIC CORR
BDSA   7.4506D-09  6.7055D-08 -4.7684D-07  7.1526D-07 W 25  IONOSPHERIC CORR
BDSA   7.4506D-09  6.7055D-08 -4.7684D-07  7.1526D-07 U 26  IONOSPHERIC CORR
BDSA   7.4506D-09  6.7055D-08 -4.7684D-07  7.1526D-07 U 27  IONOSPHERIC CORR
BDSA   7.4506D-09  6.7055D-08 -4.7684D-07  7.1526D-07 U 28  IONOSPHERIC CORR
BDSA   7.4506D-09  6.7055D-08 -4.7684D-07  7.1526D-07 K 29  IONOSPHERIC CORR
BDSA   7.4506D-09  6.7055D-08 -4.7684D-07  7.1526D-07 U 30  IONOSPHERIC CORR
BDSB   1.1059D+05  3.7683D+05 -1.5729D+06  1.1141D+06 M 02  IONOSPHERIC CORR
BDSB   1.1878D+05  2.1299D+05 -9.8304D+05  8.5197D+05 W 05  IONOSPHERIC CORR
BDSB   1.1469D+05  3.1130D+05 -1.3763D+06  1.0486D+06 Q 06  IONOSPHERIC CORR
BDSB   1.1878D+05  2.1299D+05 -9.8304D+05  8.5197D+05 W 07  IONOSPHERIC CORR
BDSB   1.2083D+05  2.1299D+05 -1.0486D+06  9.1750D+05 I 08  IONOSPHERIC CORR
BDSB   1.1878D+05  2.1299D+05 -1.0486D+06  9.1750D+05 U 09  IONOSPHERIC CORR
BDSB   1.1878D+05  2.1299D+05 -9.8304D+05  8.5197D+05 W 10  IONOSPHERIC CORR
BDSB   1.1469D+05  3.1130D+05 -1.3763D+06  1.0486D+06 Q 11  IONOSPHERIC CORR
BDSB   1.1674D+05  2.7853D+05 -1.2452D+06  1.0486D+06 O 12  IONOSPHERIC CORR
BDSB   1.2083D+05  2.1299D+05 -1.0486D+06  9.1750D+05 K 13  IONOSPHERIC CORR
BDSB   1.1878D+05  2.1299D+05 -1.0486D+06  9.1750D+05 U 14  IONOSPHERIC CORR
BDSB   1.1469D+05  3.1130D+05 -1.3763D+06  1.0486D+06 Q 16  IONOSPHERIC CORR
BDSB   1.2083D+05  2.2938D+05 -1.1141D+06  9.1750D+05 M 19  IONOSPHERIC CORR
BDSB   1.1878D+05  2.1299D+05 -9.8304D+05  8.5197D+05 W 20  IONOSPHERIC CORR
BDSB   1.1469D+05  3.1130D+05 -1.3763D+06  1.0486D+06 Q 21  IONOSPHERIC CORR
BDSB   1.1674D+05  2.7853D+05 -1.2452D+06  1.0486D+06 O 22  IONOSPHERIC CORR
BDSB   1.1878D+05  2.1299D+05 -9.8304D+05  8.5197D+05 W 23  IONOSPHERIC CORR
BDSB   1.1878D+05  2.1299D+05 -9.8304D+05  8.5197D+05 W 24  IONOSPHERIC CORR
BDSB   1.1878D+05  2.1299D+05 -9.8304D+05  8.5197D+05 W 25  IONOSPHERIC CORR
BDSB   1.1878D+05  2.1299D+05 -1.0486D+06  9.1750D+05 U 26  IONOSPHERIC CORR
BDSB   1.1878D+05  2.1299D+05 -1.0486D+06  9.1750D+05 U 27  IONOSPHERIC CORR
BDSB   1.1878D+05  2.1299D+05 -1.0486D+06  9.1750D+05 U 28  IONOSPHERIC CORR
BDSB   1.2083D+05  2.1299D+05 -1.0486D+06  9.1750D+05 K 29  IONOSPHERIC CORR
BDSB   1.1878D+05  2.1299D+05 -1.0486D+06  9.1750D+05 U 30  IONOSPHERIC CORR
GPUT  9.3132257462D-10 4.440892099D-15 503808 2164          TIME SYSTEM CORR
GLUT  2.7008354664D-08 0.000000000D+00      0    0          TIME SYSTEM CORR
GAUT  9.3132257462D-10 0.000000000D+00 259200 2164          TIME SYSTEM CORR
GPGA  5.9953890741D-09 1.465494393D-14 345600 2164          TIME SYSTEM CORR
BDUT -1.8626451492D-09 0.000000000D+00 345545  808          TIME SYSTEM CORR
    18    18  1929     7                                    LEAP SECONDS
                                                            END OF HEADER
C19 2021 07 01 09 00 00 8.926879381761D-04 1.421440742888D-11 0.000000000000D+00
     1.000000000000D+00-7.140625000000D+01 3.783371878339D-09 1.181620130307D-01
    -3.519002348185D-06 9.244190296158D-04 6.277114152908D-06 5.282622028351D+03
     3.780000000000D+05-3.026798367500D-08-2.650257261053D+00 4.656612873077D-09
     9.665544397978D-01 2.325312500000D+02-1.065430976414D+00-6.893144269984D-09
    -5.071639825584D-11                    8.080000000000D+02                   
     2.000000000000D+00 0.000000000000D+00 1.220000000000D-08 1.220000000000D-08
     3.815400000000D+05 1.000000000000D+00                                      
G10 2021 07 01 11 59 44-1.532849855721D-04-7.617018127348D-12 0.000000000000D+00
     3.300000000000D+01-3.796875000000D+01 4.305179328000D-09-2.879026544086D+00
    -1.955777406693D-06 6.707399617881D-03 5.410984158516D-06 5.153672771454D+03
     3.887840000000D+05-3.725290298462D-09-3.029643646327D+00-9.126961231232D-08
     9.699663319511D-01 2.793750000000D+02-2.569817385061D+00-7.974260731396D-09
     3.464430021702D-11 1.000000000000D+00 2.164000000000D+03 0.000000000000D+00
     2.000000000000D+00 0.000000000000D+00 2.328306436539D-09 3.300000000000D+01
     3.816000000000D+05                   
G31 2021 07 01 12 00 00-1.261727884412D-04-2.160049916711D-12 0.000000000000D+00
     7.900000000000D+01 4.584375000000D+01 4.721982403806D-09-2.004992430085D+00
     2.002343535423D-06 1.002561277710D-02 8.372589945793D-06 5.153560636520D+03
     3.888000000000D+05-1.117587089539D-08-9.075065530163D-01-1.210719347000D-07
     9.556567080578D-01 2.166562500000D+02 2.668181833055D-01-8.030691653399D-09
     3.739441477033D-10 1.000000000000D+00 2.164000000000D+03 0.000000000000D+00
     2.000000000000D+00 0.000000000000D+00-1.303851604462D-08 7.900000000000D+01
     3.816000000000D+05                   
G26 2021 07 01 12 00 00 1.052306033671D-04 4.661160346586D-12 0.000000000000D+00
     6.200000000000D+01 1.753125000000D+01 5.278076995950D-09-3.136541411048D+00
     9.443610906601D-07 5.907242884859D-03 5.496665835381D-06 5.153580877304D+03
     3.888000000000D+05-8.754432201385D-08 6.928979819822D-02-8.195638656616D-08
     9.417164519616D-01 2.655000000000D+02 3.046681618290D-01-8.353919402846D-09
    -6.500270762369D-11 1.000000000000D+00 2.164000000000D+03 0.000000000000D+00
     2.000000000000D+00 0.000000000000D+00 6.984919309616D-09 6.200000000000D+01
     3.816000000000D+05                   
G18 2021 07 01 12 00 00 3.437884151936D-04-2.273736754432D-12 0.000000000000D+00
     1.470000000000D+02 1.703125000000D+01 4.253034298807D-09-5.253051052033D-01
     8.009374141693D-07 1.600106596015D-03 7.301568984985D-06 5.153658578873D+03
     3.888000000000D+05 3.725290298462D-09 2.230564033134D+00-5.960464477539D-08
     9.684399495597D-01 2.462500000000D+02 2.877618340606D+00-8.010333662550D-09
     3.142988060926D-11 1.000000000000D+00 2.164000000000D+03 0.000000000000D+00
     2.000000000000D+00 0.000000000000D+00-8.381903171539D-09 4.030000000000D+02
     3.816000000000D+05                   
G16 2021 07 01 11 59 44-3.500478342175D-04-6.139089236967D-12 0.000000000000D+00
     5.800000000000D+01 9.281250000000D+00 4.563761527558D-09 2.246082022972D+00
     4.116445779800D-07 1.217629387975D-02 6.169080734253D-06 5.153715417862D+03
     3.887840000000D+05-2.533197402954D-07 2.045863153041D-01-1.955777406693D-07
     9.735185150223D-01 2.691250000000D+02 6.800521173461D-01-7.977475151004D-09
    -1.089331089298D-10 1.000000000000D+00 2.164000000000D+03 0.000000000000D+00
     2.000000000000D+00 0.000000000000D+00-1.024454832077D-08 5.800000000000D+01
     3.816000000000D+05                   
G27 2021 07 01 11 59 44-1.559816300869D-04-6.025402399246D-12 0.000000000000D+00
     1.600000000000D+01 2.093750000000D+00 4.314822586823D-09 1.298182487769D+00
     2.644956111908D-07 9.439070592634D-03 8.450821042061D-06 5.153687187195D+03
     3.887840000000D+05-3.352761268616D-08 1.161066258567D+00 2.104789018631D-07
     9.755684728684D-01 2.258125000000D+02 6.347557541364D-01-8.062835849477D-09
    -3.225134339791D-10 1.000000000000D+00 2.164000000000D+03 0.000000000000D+00
     2.000000000000D+00 0.000000000000D+00 1.862645149231D-09 1.600000000000D+01
     3.816000000000D+05                   
G29 2021 07 01 12 00 00-3.731246106327D-04-6.139089236967D-12 0.000000000000D+00
     2.000000000000D+01-3.125000000000D-01 3.966236638248D-09 1.446097299437D+00
    -1.788139343262D-07 1.953485538252D-03 7.875263690948D-06 5.153619888306D+03
     3.888000000000D+05-4.656612873077D-08 1.234568802940D+00-2.980232238770D-08
     9.836533349840D-01 2.360625000000D+02 2.206526832025D+00-7.819254274755D-09
    -2.721541934574D-10 1.000000000000D+00 2.164000000000D+03 0.000000000000D+00
     2.000000000000D+00 0.000000000000D+00-9.778887033463D-09 2.000000000000D+01
     3.816000000000D+05                   
